{
    "links": {
        "self": "http://www.neowsapp.com/rest/v1/neo/3370494?api_key=iIulBulltgU6a56xZRHN4H3l9WmuAYTsLGpBGhQ2"
    },
    "id": "3370494",
    "neo_reference_id": "3370494",
    "name": "(2007 EZ25)",
    "designation": "2007 EZ25",
    "nasa_jpl_url": "http://ssd.jpl.nasa.gov/sbdb.cgi?sstr=3370494",
    "absolute_magnitude_h": 25.5,
    "estimated_diameter": {
        "kilometers": {
            "estimated_diameter_min": 0.0211132445,
            "estimated_diameter_max": 0.0472106499
        },
        "meters": {
            "estimated_diameter_min": 21.113244479,
            "estimated_diameter_max": 47.2106498806
        },
        "miles": {
            "estimated_diameter_min": 0.0131191578,
            "estimated_diameter_max": 0.0293353287
        },
        "feet": {
            "estimated_diameter_min": 69.2691770164,
            "estimated_diameter_max": 154.8905885541
        }
    },
    "is_potentially_hazardous_asteroid": false,
    "close_approach_data": [
        {
            "close_approach_date": "2007-03-04",
            "close_approach_date_full": "2007-Mar-04 08:54",
            "epoch_date_close_approach": 1172998440000,
            "relative_velocity": {
                "kilometers_per_second": "21.0556124982",
                "kilometers_per_hour": "75800.204993475",
                "miles_per_hour": "47099.2995971956"
            },
            "miss_distance": {
                "astronomical": "0.010100736",
                "lunar": "3.929186304",
                "kilometers": "1511048.59103232",
                "miles": "938922.056073216"
            },
            "orbiting_body": "Earth"
        },
        {
            "close_approach_date": "2007-03-04",
            "close_approach_date_full": "2007-Mar-04 13:39",
            "epoch_date_close_approach": 1173015540000,
            "relative_velocity": {
                "kilometers_per_second": "21.1768747571",
                "kilometers_per_hour": "76236.7491255107",
                "miles_per_hour": "47370.5511441263"
            },
            "miss_distance": {
                "astronomical": "0.0099902367",
                "lunar": "3.8862020763",
                "kilometers": "1494518.131115829",
                "miles": "928650.5045792802"
            },
            "orbiting_body": "Moon"
        }
    ],
    "orbital_data": {
        "orbit_id": "9",
        "orbit_determination_date": "2017-04-06 09:06:48",
        "first_observation_date": "2007-03-09",
        "last_observation_date": "2007-03-15",
        "data_arc_in_days": 6,
        "observations_used": 25,
        "orbit_uncertainty": "9",
        "minimum_orbit_intersection": ".000588515",
        "jupiter_tisserand_invariant": "3.324",
        "epoch_osculation": "2454171.5",
        "eccentricity": ".7195401164080331",
        "semi_major_axis": "2.133329903585232",
        "inclination": "5.460044943974673",
        "ascending_node_longitude": "167.9285675361551",
        "orbital_period": "1138.113194929607",
        "perihelion_distance": ".5983134564227762",
        "perihelion_argument": "267.9182504011866",
        "aphelion_distance": "3.668346350747687",
        "perihelion_time": "2454118.297147112392",
        "mean_anomaly": "16.8287540508864",
        "mean_motion": ".3163130008542483",
        "equinox": "J2000",
        "orbit_class": {
            "orbit_class_type": "APO",
            "orbit_class_description": "Near-Earth asteroid orbits which cross the Earth’s orbit similar to that of 1862 Apollo",
            "orbit_class_range": "a (semi-major axis) > 1.0 AU; q (perihelion) < 1.017 AU"
        }
    },
    "is_sentry_object": false
}